[
    {
        "Altitude(m)": 610399.5032190271,
        "Argument of Periapsis(deg)": 0.0,
        "Eccentricity": 0.0,
        "Inclination(deg)": 60.0,
        "Latitude(deg)": 52.11126426705542,
        "Longitude(deg)": -62.415756518118805,
        "Mean Anomaly(deg)": -294.5455,
        "RAAN(deg)": 350.0,
        "Satellite Name": "Test1 1544",
        "Satellite Number": 1544,
        "Semi-Major Axis(m)": 6980739.136638005,
        "Time(s)": 0
    },
    {
        "Altitude(m)": 610481.654630847,
        "Argument of Periapsis(deg)": 0.00010418945913296404,
        "Eccentricity": 0.0,
        "Inclination(deg)": 60.0,
        "Latitude(deg)": 52.47086719786334,
        "Longitude(deg)": -61.633622356359794,
        "Mean Anomaly(deg)": -293.9253938545382,
        "RAAN(deg)": 349.99957995086027,
        "Satellite Name": "Test1 1544",
        "Satellite Number": 1544,
        "Semi-Major Axis(m)": 6980739.136638005,
        "Time(s)": 10
    }
]